OBJECT_NAME,OBJECT_ID,EPOCH,MEAN_MOTION,ECCENTRICITY,INCLINATION,RA_OF_ASC_NODE,ARG_OF_PERICENTER,MEAN_ANOMALY,EPHEMERIS_TYPE,CLASSIFICATION_TYPE,NORAD_CAT_ID,ELEMENT_SET_NO,REV_AT_EPOCH,BSTAR,MEAN_MOTION_DOT,MEAN_MOTION_DDOT
STARLINK-31870,2024-093F,2026-06-14T21:05:03.499008,15.27590666,.00008666,43.0065,19.6447,281.9504,78.1251,0,U,59787,999,11756,.11373382E-3,.287E-4,0
STARLINK-31888,2024-093G,2026-06-14T21:19:51.534624,15.27588366,.00009505,43.0065,19.7212,278.3280,81.7464,0,U,59788,999,11756,-.71914438E-4,-.2241E-4,0
STARLINK-31863,2024-093H,2026-06-14T21:16:08.495616,15.27583714,.00009714,43.0139,19.7074,257.5715,102.5028,0,U,59789,999,11756,.58818403E-4,.1357E-4,0
STARLINK-31873,2024-093J,2026-06-14T21:30:58.090752,15.27572282,.00008742,43.0082,19.7790,282.0310,78.0443,0,U,59790,999,11756,.27987055E-4,.508E-5,0
STARLINK-31865,2024-093K,2026-06-15T07:01:26.962752,15.27616900,.0001699,43.0059,17.5915,264.0551,96.0107,0,U,59791,999,11762,-.20931E-3,-.6024E-4,0
STARLINK-31823,2024-093N,2026-06-14T21:42:03.852864,15.27580337,.0001459,43.0005,19.8342,271.0536,89.0149,0,U,59794,999,11756,.48033E-4,.106E-4,0
STARLINK-31916,2024-093P,2026-06-15T07:12:33.778080,15.27575708,.0000273,42.9927,17.6481,75.2191,284.8690,0,U,59795,999,11762,.2291E-4,.369E-5,0
STARLINK-31907,2024-093R,2026-06-14T07:43:55.106976,15.27568738,.00017373,43.0051,23.2062,262.3122,97.7533,0,U,59797,999,11747,.23657691E-4,.389E-5,0
STARLINK-31687,2024-093S,2026-06-15T01:36:38.171808,15.27576863,.00015413,43.0025,19.3310,245.8728,114.1963,0,U,59798,999,11758,.15628349E-4,.168E-5,0
STARLINK-31810,2024-093T,2026-06-15T07:32:54.066624,15.27582773,.0001429,43.0018,17.7508,262.7123,97.3566,0,U,59799,999,11762,.45438E-4,.988E-5,0
STARLINK-31812,2024-093U,2026-06-15T07:21:48.682080,15.27582512,.0000474,42.9848,17.6963,87.2465,272.8441,0,U,59800,999,11769,.63186E-4,.1478E-4,0
STARLINK-31815,2024-093V,2026-06-15T07:27:21.068064,15.27582603,.0001877,43.0030,17.7287,292.1906,67.8746,0,U,59801,999,11762,.50415E-4,.1125E-4,0
STARLINK-31814,2024-093W,2026-06-14T20:59:43.040544,15.27578079,.00010771,43.0080,20.4597,255.4780,104.5952,0,U,59802,999,11755,.23298953E-4,.379E-5,0
STARLINK-31794,2024-093X,2026-06-14T20:44:55.220928,15.27576369,.00021422,43.0124,20.4003,278.7263,81.3346,0,U,59803,999,11762,.6252008E-5,-.91E-6,0
STARLINK-31824,2024-093Y,2026-06-15T07:38:27.492000,15.27587501,.0001882,43.0033,17.7820,271.9483,88.1153,0,U,59804,999,11762,.20564E-3,.5402E-4,0
2024-094A,2024-094A,2026-06-15T12:21:35.783136,15.16727609,.0004756,97.3873,237.3620,186.6860,173.4311,0,U,59805,999,11491,.27593E-3,.5346E-4,0
2024-094B,2024-094B,2026-06-15T11:38:59.468064,15.16709718,.0006526,97.3900,237.5498,128.7313,231.4505,0,U,59806,999,11490,.29598E-3,.5738E-4,0
2024-094C,2024-094C,2026-06-15T12:01:20.862624,15.16852928,.0002693,97.3925,237.7368,188.5370,171.5818,0,U,59807,999,11490,.25459E-3,.4944E-4,0
2024-094D,2024-094D,2026-06-15T12:42:29.073888,15.16964157,.0002599,97.3847,237.1619,208.0994,152.0100,0,U,59808,999,11490,.28894E-3,.5639E-4,0
2024-092K,2024-092K,2026-06-15T08:09:26.771616,15.36590442,.0007917,97.6571,299.1058,152.1690,207.9979,0,U,59809,999,11495,.42614E-3,.15164E-3,0
2024-095A,2024-095A,2026-06-15T11:42:22.915872,15.11323667,.0001336,97.5352,245.4195,321.8527,38.2608,0,U,59810,999,11388,.23417E-3,.3882E-4,0
STARLINK-31947,2024-097A,2026-06-15T01:52:26.223456,15.27574814,.00011632,43.0045,84.1540,275.0173,85.0546,0,U,59835,999,11681,.3961192E-5,-.153E-5,0
STARLINK-31929,2024-097B,2026-06-15T01:15:38.288736,15.27579429,.0001251,43.0025,84.8111,269.2372,90.8336,0,U,59836,999,11680,.22247608E-4,.35E-5,0
STARLINK-31927,2024-097C,2026-06-15T11:43:16.912416,15.27577468,.0002551,43.0165,82.0626,265.7519,94.3041,0,U,59837,999,11687,.1412E-5,-.224E-5,0
STARLINK-31855,2024-097D,2026-06-15T11:11:49.170048,15.27595102,.0001905,42.9942,81.8931,266.3089,93.7545,0,U,59838,999,11687,.66012E-3,.17956E-3,0
STARLINK-31887,2024-097E,2026-06-15T01:21:11.878272,15.27573968,.00009015,43.0025,84.8356,261.9990,98.0760,0,U,59839,999,11680,-.3332114E-5,-.354E-5,0
STARLINK-31852,2024-097G,2026-06-15T00:49:03.826848,15.27581907,.00012812,43.0052,76.8855,268.7199,91.3506,0,U,59841,999,11689,.40883548E-4,.863E-5,0
STARLINK-31906,2024-097H,2026-06-15T11:54:21.940992,15.27584329,.0005689,43.0276,82.1317,290.0891,69.9348,0,U,59842,999,11687,.20404E-4,.297E-5,0
STARLINK-31857,2024-097J,2026-06-15T11:02:33.845280,15.27578645,.0000137,43.0118,81.8470,175.9108,184.1745,0,U,59843,999,11687,.92473E-5,-.7E-7,0
STARLINK-31851,2024-097K,2026-06-15T11:22:56.468352,15.27562422,.000039,43.0056,81.9612,305.1408,54.9408,0,U,59844,999,11687,-.15466E-4,-.687E-5,0
