STARLINK-31870          
1 59787U 24093F   26165.87851272  .00002870  00000+0  11373-3 0  9998
2 59787  43.0065  19.6447 0000866 281.9504  78.1251 15.27590666117567
STARLINK-31888          
1 59788U 24093G   26165.88879091 -.00002241  00000+0 -71914-4 0  9991
2 59788  43.0065  19.7212 0000950 278.3280  81.7464 15.27588366117564
STARLINK-31863          
1 59789U 24093H   26165.88620944  .00001357  00000+0  58818-4 0  9996
2 59789  43.0139  19.7074 0000971 257.5715 102.5028 15.27583714117568
STARLINK-31873          
1 59790U 24093J   26165.89650568  .00000508  00000+0  27987-4 0  9994
2 59790  43.0082  19.7790 0000874 282.0310  78.0443 15.27572282117564
STARLINK-31865          
1 59791U 24093K   26166.29267318 -.00006024  00000+0 -20931-3 0  9999
2 59791  43.0059  17.5915 0001699 264.0551  96.0107 15.27616900117627
STARLINK-31823          
1 59794U 24093N   26165.90421126  .00001060  00000+0  48033-4 0  9995
2 59794  43.0005  19.8342 0001459 271.0536  89.0149 15.27580337117560
STARLINK-31916          
1 59795U 24093P   26166.30039095  .00000369  00000+0  22910-4 0  9998
2 59795  42.9927  17.6481 0000273  75.2191 284.8690 15.27575708117625
STARLINK-31907          
1 59797U 24093R   26165.32216559  .00000389  00000+0  23658-4 0  9995
2 59797  43.0051  23.2062 0001737 262.3122  97.7533 15.27568738117479
STARLINK-31687          
1 59798U 24093S   26166.06710847  .00000168  00000+0  15628-4 0  9990
2 59798  43.0025  19.3310 0001541 245.8728 114.1963 15.27576863117585
STARLINK-31810          
1 59799U 24093T   26166.31451466  .00000988  00000+0  45438-4 0  9990
2 59799  43.0018  17.7508 0001429 262.7123  97.3566 15.27582773117624
STARLINK-31812          
1 59800U 24093U   26166.30681345  .00001478  00000+0  63186-4 0  9998
2 59800  42.9848  17.6963 0000474  87.2465 272.8441 15.27582512117698
STARLINK-31815          
1 59801U 24093V   26166.31066051  .00001125  00000+0  50415-4 0  9991
2 59801  43.0030  17.7287 0001877 292.1906  67.8746 15.27582603117623
STARLINK-31814          
1 59802U 24093W   26165.87480371  .00000379  00000+0  23299-4 0  9997
2 59802  43.0080  20.4597 0001077 255.4780 104.5952 15.27578079117550
STARLINK-31794          
1 59803U 24093X   26165.86452802 -.00000091  00000+0  62520-5 0  9998
2 59803  43.0124  20.4003 0002142 278.7263  81.3346 15.27576369117627
STARLINK-31824          
1 59804U 24093Y   26166.31837375  .00005402  00000+0  20564-3 0  9992
2 59804  43.0033  17.7820 0001882 271.9483  88.1153 15.27587501117623
2024-094A               
1 59805U 24094A   26166.51499749  .00005346  00000+0  27593-3 0  9991
2 59805  97.3873 237.3620 0004756 186.6860 173.4311 15.16727609114916
2024-094B               
1 59806U 24094B   26166.48541051  .00005738  00000+0  29598-3 0  9994
2 59806  97.3900 237.5498 0006526 128.7313 231.4505 15.16709718114900
2024-094C               
1 59807U 24094C   26166.50093591  .00004944  00000+0  25459-3 0  9999
2 59807  97.3925 237.7368 0002693 188.5370 171.5818 15.16852928114907
2024-094D               
1 59808U 24094D   26166.52950317  .00005639  00000+0  28894-3 0  9998
2 59808  97.3847 237.1619 0002599 208.0994 152.0100 15.16964157114905
2024-092K               
1 59809U 24092K   26166.33989319  .00015164  00000+0  42614-3 0  9990
2 59809  97.6571 299.1058 0007917 152.1690 207.9979 15.36590442114952
2024-095A               
1 59810U 24095A   26166.48776523  .00003882  00000+0  23417-3 0  9996
2 59810  97.5352 245.4195 0001336 321.8527  38.2608 15.11323667113880
STARLINK-31947          
1 59835U 24097A   26166.07808129 -.00000153  00000+0  39612-5 0  9993
2 59835  43.0045  84.1540 0001163 275.0173  85.0546 15.27574814116815
STARLINK-31929          
1 59836U 24097B   26166.05252649  .00000350  00000+0  22248-4 0  9996
2 59836  43.0025  84.8111 0001251 269.2372  90.8336 15.27579429116806
STARLINK-31927          
1 59837U 24097C   26166.48839019 -.00000224  00000+0  14120-5 0  9998
2 59837  43.0165  82.0626 0002551 265.7519  94.3041 15.27577468116871
STARLINK-31855          
1 59838U 24097D   26166.46654132  .00017956  00000+0  66012-3 0  9992
2 59838  42.9942  81.8931 0001905 266.3089  93.7545 15.27595102116877
STARLINK-31887          
1 59839U 24097E   26166.05638748 -.00000354  00000+0 -33321-5 0  9998
2 59839  43.0025  84.8356 0000901 261.9990  98.0760 15.27573968116809
STARLINK-31852          
1 59841U 24097G   26166.03407207  .00000863  00000+0  40884-4 0  9997
2 59841  43.0052  76.8855 0001281 268.7199  91.3506 15.27581907116890
STARLINK-31906          
1 59842U 24097H   26166.49608728  .00000297  00000+0  20404-4 0  9996
2 59842  43.0276  82.1317 0005689 290.0891  69.9348 15.27584329116879
STARLINK-31857          
1 59843U 24097J   26166.46011395 -.00000007  00000+0  92473-5 0  9998
2 59843  43.0118  81.8470 0000137 175.9108 184.1745 15.27578645116871
STARLINK-31851          
1 59844U 24097K   26166.47426468 -.00000687  00000+0 -15466-4 0  9992
2 59844  43.0056  81.9612 0000390 305.1408  54.9408 15.27562422116879
